[
    {
        "Altitude(m)": 604234.604168917,
        "Argument of Periapsis(deg)": 0.0,
        "Eccentricity": 0.0,
        "Inclination(deg)": 60.0,
        "Latitude(deg)": 14.117206903896014,
        "Longitude(deg)": -3.272696526947912,
        "Mean Anomaly(deg)": -196.36359999999996,
        "RAAN(deg)": 285.0,
        "Satellite Name": "Test1 1264",
        "Satellite Number": 1264,
        "Semi-Major Axis(m)": 6980739.136638005,
        "Time(s)": 0
    },
    {
        "Altitude(m)": 604223.4329961351,
        "Argument of Periapsis(deg)": 0.00010418945913296404,
        "Eccentricity": 0.0,
        "Inclination(deg)": 60.0,
        "Latitude(deg)": 13.582343751981476,
        "Longitude(deg)": -2.985786445622425,
        "Mean Anomaly(deg)": -195.74349385453812,
        "RAAN(deg)": 284.9995799508602,
        "Satellite Name": "Test1 1264",
        "Satellite Number": 1264,
        "Semi-Major Axis(m)": 6980739.136638005,
        "Time(s)": 10
    },
    {
        "Altitude(m)": 604215.2170821311,
        "Argument of Periapsis(deg)": 0.0002083789182659281,
        "Eccentricity": 0.0,
        "Inclination(deg)": 60.0,
        "Latitude(deg)": 13.047032461041526,
        "Longitude(deg)": -2.7003468761763285,
        "Mean Anomaly(deg)": -195.12338770907633,
        "RAAN(deg)": 284.9991599017205,
        "Satellite Name": "Test1 1264",
        "Satellite Number": 1264,
        "Semi-Major Axis(m)": 6980739.136638005,
        "Time(s)": 20
    },
    {
        "Altitude(m)": 604209.9843188415,
        "Argument of Periapsis(deg)": 0.00031256837739889213,
        "Eccentricity": 0.0,
        "Inclination(deg)": 60.0,
        "Latitude(deg)": 12.511293419832448,
        "Longitude(deg)": -2.4163131051772515,
        "Mean Anomaly(deg)": -194.50328156361448,
        "RAAN(deg)": 284.9987398525808,
        "Satellite Name": "Test1 1264",
        "Satellite Number": 1264,
        "Semi-Major Axis(m)": 6980739.136638005,
        "Time(s)": 30
    },
    {
        "Altitude(m)": 604207.7612541631,
        "Argument of Periapsis(deg)": 0.0004167578365318562,
        "Eccentricity": 0.0,
        "Inclination(deg)": 60.0,
        "Latitude(deg)": 11.975146741154715,
        "Longitude(deg)": -2.1336207645676706,
        "Mean Anomaly(deg)": -193.88317541815266,
        "RAAN(deg)": 284.998319803441,
        "Satellite Name": "Test1 1264",
        "Satellite Number": 1264,
        "Semi-Major Axis(m)": 6980739.136638005,
        "Time(s)": 40
    },
    {
        "Altitude(m)": 604208.5730761668,
        "Argument of Periapsis(deg)": 0.0005209472956648203,
        "Eccentricity": 0.0,
        "Inclination(deg)": 60.0,
        "Latitude(deg)": 11.438612275798262,
        "Longitude(deg)": -1.8522067999478327,
        "Mean Anomaly(deg)": -193.2630692726908,
        "RAAN(deg)": 284.9978997543013,
        "Satellite Name": "Test1 1264",
        "Satellite Number": 1264,
        "Semi-Major Axis(m)": 6980739.136638005,
        "Time(s)": 50
    },
    {
        "Altitude(m)": 604212.443597956,
        "Argument of Periapsis(deg)": 0.0006251367547977843,
        "Eccentricity": 0.0,
        "Inclination(deg)": 60.0,
        "Latitude(deg)": 10.901709626134641,
        "Longitude(deg)": -1.5720089266749224,
        "Mean Anomaly(deg)": -192.64296312722902,
        "RAAN(deg)": 284.99747970516154,
        "Satellite Name": "Test1 1264",
        "Satellite Number": 1264,
        "Semi-Major Axis(m)": 6980739.136638005,
        "Time(s)": 60
    },
    {
        "Altitude(m)": 604219.3952432072,
        "Argument of Periapsis(deg)": 0.0007293262139307483,
        "Eccentricity": 0.0,
        "Inclination(deg)": 60.0,
        "Latitude(deg)": 10.364458159370743,
        "Longitude(deg)": -1.2929650866192022,
        "Mean Anomaly(deg)": -192.02285698176718,
        "RAAN(deg)": 284.9970596560218,
        "Satellite Name": "Test1 1264",
        "Satellite Number": 1264,
        "Semi-Major Axis(m)": 6980739.136638005,
        "Time(s)": 70
    },
    {
        "Altitude(m)": 604229.4490323582,
        "Argument of Periapsis(deg)": 0.0008335156730637124,
        "Eccentricity": 0.0,
        "Inclination(deg)": 60.0,
        "Latitude(deg)": 9.826877020481303,
        "Longitude(deg)": -1.015014418423827,
        "Mean Anomaly(deg)": -191.40275083630536,
        "RAAN(deg)": 284.99663960688207,
        "Satellite Name": "Test1 1264",
        "Satellite Number": 1264,
        "Semi-Major Axis(m)": 6980739.136638005,
        "Time(s)": 80
    },
    {
        "Altitude(m)": 604242.624569508,
        "Argument of Periapsis(deg)": 0.0009377051321966765,
        "Eccentricity": 0.0,
        "Inclination(deg)": 60.0,
        "Latitude(deg)": 9.28898514484245,
        "Longitude(deg)": -0.7380967154903336,
        "Mean Anomaly(deg)": -190.7826446908435,
        "RAAN(deg)": 284.9962195577423,
        "Satellite Name": "Test1 1264",
        "Satellite Number": 1264,
        "Semi-Major Axis(m)": 6980739.136638005,
        "Time(s)": 90
    },
    {
        "Altitude(m)": 604258.9400299703,
        "Argument of Periapsis(deg)": 0.0010418945913296407,
        "Eccentricity": 0.0,
        "Inclination(deg)": 60.0,
        "Latitude(deg)": 8.750801270582105,
        "Longitude(deg)": -0.4621518845344367,
        "Mean Anomaly(deg)": -190.16253854538166,
        "RAAN(deg)": 284.99579950860254,
        "Satellite Name": "Test1 1264",
        "Satellite Number": 1264,
        "Semi-Major Axis(m)": 6980739.136638005,
        "Time(s)": 100
    },
    {
        "Altitude(m)": 604278.4121485478,
        "Argument of Periapsis(deg)": 0.0011460840504626045,
        "Eccentricity": 0.0,
        "Inclination(deg)": 60.0,
        "Latitude(deg)": 8.212343950661408,
        "Longitude(deg)": -0.18712091755581756,
        "Mean Anomaly(deg)": -189.54243239991987,
        "RAAN(deg)": 284.99537945946287,
        "Satellite Name": "Test1 1264",
        "Satellite Number": 1264,
        "Semi-Major Axis(m)": 6980739.136638005,
        "Time(s)": 110
    },
    {
        "Altitude(m)": 604301.0562084945,
        "Argument of Periapsis(deg)": 0.0012502735095955685,
        "Eccentricity": 0.0,
        "Inclination(deg)": 60.0,
        "Latitude(deg)": 7.673631564708545,
        "Longitude(deg)": 0.08705464855532073,
        "Mean Anomaly(deg)": -188.922326254458,
        "RAAN(deg)": 284.9949594103231,
        "Satellite Name": "Test1 1264",
        "Satellite Number": 1264,
        "Semi-Major Axis(m)": 6980739.136638005,
        "Time(s)": 120
    },
    {
        "Altitude(m)": 604326.886031182,
        "Argument of Periapsis(deg)": 0.0013544629687285324,
        "Eccentricity": 0.0,
        "Inclination(deg)": 60.0,
        "Latitude(deg)": 7.134682330620422,
        "Longitude(deg)": 0.3604332719302435,
        "Mean Anomaly(deg)": -188.3022201089962,
        "RAAN(deg)": 284.99453936118334,
        "Satellite Name": "Test1 1264",
        "Satellite Number": 1264,
        "Semi-Major Axis(m)": 6980739.136638005,
        "Time(s)": 130
    },
    {
        "Altitude(m)": 604355.9139664915,
        "Argument of Periapsis(deg)": 0.0014586524278614966,
        "Eccentricity": 0.0,
        "Inclination(deg)": 60.0,
        "Latitude(deg)": 6.5955143159433165,
        "Longitude(deg)": 0.6330724323096497,
        "Mean Anomaly(deg)": -187.68211396353433,
        "RAAN(deg)": 284.99411931204355,
        "Satellite Name": "Test1 1264",
        "Satellite Number": 1264,
        "Semi-Major Axis(m)": 6980739.136638005,
        "Time(s)": 140
    },
    {
        "Altitude(m)": 604388.1508839197,
        "Argument of Periapsis(deg)": 0.0015628418869944607,
        "Eccentricity": 0.0,
        "Inclination(deg)": 60.0,
        "Latitude(deg)": 6.056145449055464,
        "Longitude(deg)": 0.9050291700829001,
        "Mean Anomaly(deg)": -187.0620078180725,
        "RAAN(deg)": 284.9936992629039,
        "Satellite Name": "Test1 1264",
        "Satellite Number": 1264,
        "Semi-Major Axis(m)": 6980739.136638005,
        "Time(s)": 150
    },
    {
        "Altitude(m)": 604423.6061644058,
        "Argument of Periapsis(deg)": 0.0016670313461274247,
        "Eccentricity": 0.0,
        "Inclination(deg)": 60.0,
        "Latitude(deg)": 5.516593530163246,
        "Longitude(deg)": 1.1763606249352536,
        "Mean Anomaly(deg)": -186.44190167261073,
        "RAAN(deg)": 284.99327921376414,
        "Satellite Name": "Test1 1264",
        "Satellite Number": 1264,
        "Semi-Major Axis(m)": 6980739.136638005,
        "Time(s)": 160
    },
    {
        "Altitude(m)": 604462.2876928871,
        "Argument of Periapsis(deg)": 0.0017712208052603888,
        "Eccentricity": 0.0,
        "Inclination(deg)": 60.0,
        "Latitude(deg)": 4.976876242122802,
        "Longitude(deg)": 1.4471230612602606,
        "Mean Anomaly(deg)": -185.82179552714888,
        "RAAN(deg)": 284.99285916462435,
        "Satellite Name": "Test1 1264",
        "Satellite Number": 1264,
        "Semi-Major Axis(m)": 6980739.136638005,
        "Time(s)": 170
    },
    {
        "Altitude(m)": 604504.2018515959,
        "Argument of Periapsis(deg)": 0.001875410264393353,
        "Eccentricity": 0.0,
        "Inclination(deg)": 60.0,
        "Latitude(deg)": 4.437011161109388,
        "Longitude(deg)": 1.7173724061108862,
        "Mean Anomaly(deg)": -185.20168938168703,
        "RAAN(deg)": 284.9924391154846,
        "Satellite Name": "Test1 1264",
        "Satellite Number": 1264,
        "Semi-Major Axis(m)": 6980739.136638005,
        "Time(s)": 180
    },
    {
        "Altitude(m)": 604549.3535140827,
        "Argument of Periapsis(deg)": 0.0019795997235263173,
        "Eccentricity": 0.0,
        "Inclination(deg)": 60.0,
        "Latitude(deg)": 3.8970157671437997,
        "Longitude(deg)": 1.9871647868484894,
        "Mean Anomaly(deg)": -184.58158323622524,
        "RAAN(deg)": 284.99201906634494,
        "Satellite Name": "Test1 1264",
        "Satellite Number": 1264,
        "Semi-Major Axis(m)": 6980739.136638005,
        "Time(s)": 190
    }
]